<?xml version="1.0" encoding="UTF-8"?>
<ndm xmlns:xsi="http://www.w3.org/2001/XMLSchema-instance" xsi:noNamespaceSchemaLocation="http://sanaregistry.org/r/ndmxml/ndmxml-1.0-master.xsd">
  <omm id="CCSDS_OMM_VERS" version="2.0">
    <header>
      <COMMENT/>
      <CREATION_DATE/>
      <ORIGINATOR/>
    </header>
    <body>
      <segment>
        <metadata>
          <COMMENT/>
          <OBJECT_NAME/>
          <OBJECT_ID>1958-002B</OBJECT_ID>
          <CENTER_NAME/>
          <REF_FRAME/>
          <REF_FRAME_EPOCH/>
          <TIME_SYSTEM/>
          <MEAN_ELEMENT_THEORY/>
        </metadata>
        <data>
          <meanElements>
            <COMMENT/>
            <EPOCH>2020-05-05T19:33:04.042368</EPOCH>
            <MEAN_MOTION>10.84842166</MEAN_MOTION>
            <ECCENTRICITY>0.1847113</ECCENTRICITY>
            <INCLINATION>34.2494</INCLINATION>
            <RA_OF_ASC_NODE>359.6658</RA_OF_ASC_NODE>
            <ARG_OF_PERICENTER>160.4367</ARG_OF_PERICENTER>
            <MEAN_ANOMALY>207.7732</MEAN_ANOMALY>
            <GM/>
          </meanElements>
          <tleParameters>
            <COMMENT/>
            <EPHEMERIS_TYPE>0</EPHEMERIS_TYPE>
            <CLASSIFICATION_TYPE>U</CLASSIFICATION_TYPE>
            <NORAD_CAT_ID>5</NORAD_CAT_ID>
            <ELEMENT_SET_NO>999</ELEMENT_SET_NO>
            <REV_AT_EPOCH>20062</REV_AT_EPOCH>
            <BSTAR>0.000231</BSTAR>
            <MEAN_MOTION_DOT>0.00000185</MEAN_MOTION_DOT>
            <MEAN_MOTION_DDOT>0</MEAN_MOTION_DDOT>
          </tleParameters>
        </data>
      </segment>
    </body>
  </omm>
  <omm id="CCSDS_OMM_VERS" version="2.0">
    <header>
      <COMMENT/>
      <CREATION_DATE/>
      <ORIGINATOR/>
    </header>
    <body>
      <segment>
        <metadata>
          <COMMENT/>
          <OBJECT_NAME/>
          <OBJECT_ID>1959-001A</OBJECT_ID>
          <CENTER_NAME/>
          <REF_FRAME/>
          <REF_FRAME_EPOCH/>
          <TIME_SYSTEM/>
          <MEAN_ELEMENT_THEORY/>
        </metadata>
        <data>
          <meanElements>
            <COMMENT/>
            <EPOCH>2020-05-05T17:07:41.757600</EPOCH>
            <MEAN_MOTION>11.85695065</MEAN_MOTION>
            <ECCENTRICITY>0.1468098</ECCENTRICITY>
            <INCLINATION>32.8669</INCLINATION>
            <RA_OF_ASC_NODE>215.871</RA_OF_ASC_NODE>
            <ARG_OF_PERICENTER>10.182</ARG_OF_PERICENTER>
            <MEAN_ANOMALY>352.5413</MEAN_ANOMALY>
            <GM/>
          </meanElements>
          <tleParameters>
            <COMMENT/>
            <EPHEMERIS_TYPE>0</EPHEMERIS_TYPE>
            <CLASSIFICATION_TYPE>U</CLASSIFICATION_TYPE>
            <NORAD_CAT_ID>11</NORAD_CAT_ID>
            <ELEMENT_SET_NO>999</ELEMENT_SET_NO>
            <REV_AT_EPOCH>26990</REV_AT_EPOCH>
            <BSTAR>0.000017255</BSTAR>
            <MEAN_MOTION_DOT>3.3e-7</MEAN_MOTION_DOT>
            <MEAN_MOTION_DDOT>0</MEAN_MOTION_DDOT>
          </tleParameters>
        </data>
      </segment>
    </body>
  </omm>
  <omm id="CCSDS_OMM_VERS" version="2.0">
    <header>
      <COMMENT/>
      <CREATION_DATE/>
      <ORIGINATOR/>
    </header>
    <body>
      <segment>
        <metadata>
          <COMMENT/>
          <OBJECT_NAME/>
          <OBJECT_ID>1959-001B</OBJECT_ID>
          <CENTER_NAME/>
          <REF_FRAME/>
          <REF_FRAME_EPOCH/>
          <TIME_SYSTEM/>
          <MEAN_ELEMENT_THEORY/>
        </metadata>
        <data>
          <meanElements>
            <COMMENT/>
            <EPOCH>2020-05-05T10:50:27.171168</EPOCH>
            <MEAN_MOTION>11.4429228</MEAN_MOTION>
            <ECCENTRICITY>0.1665487</ECCENTRICITY>
            <INCLINATION>32.9023</INCLINATION>
            <RA_OF_ASC_NODE>141.3677</RA_OF_ASC_NODE>
            <ARG_OF_PERICENTER>209.8665</ARG_OF_PERICENTER>
            <MEAN_ANOMALY>139.572</MEAN_ANOMALY>
            <GM/>
          </meanElements>
          <tleParameters>
            <COMMENT/>
            <EPHEMERIS_TYPE>0</EPHEMERIS_TYPE>
            <CLASSIFICATION_TYPE>U</CLASSIFICATION_TYPE>
            <NORAD_CAT_ID>12</NORAD_CAT_ID>
            <ELEMENT_SET_NO>999</ELEMENT_SET_NO>
            <REV_AT_EPOCH>51762</REV_AT_EPOCH>
            <BSTAR>0.000043322</BSTAR>
            <MEAN_MOTION_DOT>0.00000106</MEAN_MOTION_DOT>
            <MEAN_MOTION_DDOT>0</MEAN_MOTION_DDOT>
          </tleParameters>
        </data>
      </segment>
    </body>
  </omm>
  <omm id="CCSDS_OMM_VERS" version="2.0">
    <header>
      <COMMENT/>
      <CREATION_DATE/>
      <ORIGINATOR/>
    </header>
    <body>
      <segment>
        <metadata>
          <COMMENT/>
          <OBJECT_NAME/>
          <OBJECT_ID>1958-002A</OBJECT_ID>
          <CENTER_NAME/>
          <REF_FRAME/>
          <REF_FRAME_EPOCH/>
          <TIME_SYSTEM/>
          <MEAN_ELEMENT_THEORY/>
        </metadata>
        <data>
          <meanElements>
            <COMMENT/>
            <EPOCH>2020-05-05T20:22:08.716800</EPOCH>
            <MEAN_MOTION>10.48692011</MEAN_MOTION>
            <ECCENTRICITY>0.2026378</ECCENTRICITY>
            <INCLINATION>34.2624</INCLINATION>
            <RA_OF_ASC_NODE>277.5612</RA_OF_ASC_NODE>
            <ARG_OF_PERICENTER>58.1371</ARG_OF_PERICENTER>
            <MEAN_ANOMALY>320.0639</MEAN_ANOMALY>
            <GM/>
          </meanElements>
          <tleParameters>
            <COMMENT/>
            <EPHEMERIS_TYPE>0</EPHEMERIS_TYPE>
            <CLASSIFICATION_TYPE>U</CLASSIFICATION_TYPE>
            <NORAD_CAT_ID>16</NORAD_CAT_ID>
            <ELEMENT_SET_NO>999</ELEMENT_SET_NO>
            <REV_AT_EPOCH>45436</REV_AT_EPOCH>
            <BSTAR>-0.00020434</BSTAR>
            <MEAN_MOTION_DOT>-0.00000168</MEAN_MOTION_DOT>
            <MEAN_MOTION_DDOT>0</MEAN_MOTION_DDOT>
          </tleParameters>
        </data>
      </segment>
    </body>
  </omm>
  <omm id="CCSDS_OMM_VERS" version="2.0">
    <header>
      <COMMENT/>
      <CREATION_DATE/>
      <ORIGINATOR/>
    </header>
    <body>
      <segment>
        <metadata>
          <COMMENT/>
          <OBJECT_NAME/>
          <OBJECT_ID>1959-007A</OBJECT_ID>
          <CENTER_NAME/>
          <REF_FRAME/>
          <REF_FRAME_EPOCH/>
          <TIME_SYSTEM/>
          <MEAN_ELEMENT_THEORY/>
        </metadata>
        <data>
          <meanElements>
            <COMMENT/>
            <EPOCH>2020-05-06T00:46:45.104736</EPOCH>
            <MEAN_MOTION>11.5567985</MEAN_MOTION>
            <ECCENTRICITY>0.1664963</ECCENTRICITY>
            <INCLINATION>33.3439</INCLINATION>
            <RA_OF_ASC_NODE>333.172</RA_OF_ASC_NODE>
            <ARG_OF_PERICENTER>41.6658</ARG_OF_PERICENTER>
            <MEAN_ANOMALY>329.9462</MEAN_ANOMALY>
            <GM/>
          </meanElements>
          <tleParameters>
            <COMMENT/>
            <EPHEMERIS_TYPE>0</EPHEMERIS_TYPE>
            <CLASSIFICATION_TYPE>U</CLASSIFICATION_TYPE>
            <NORAD_CAT_ID>20</NORAD_CAT_ID>
            <ELEMENT_SET_NO>999</ELEMENT_SET_NO>
            <REV_AT_EPOCH>22572</REV_AT_EPOCH>
            <BSTAR>0.00002158</BSTAR>
            <MEAN_MOTION_DOT>3.6e-7</MEAN_MOTION_DOT>
            <MEAN_MOTION_DDOT>0</MEAN_MOTION_DDOT>
          </tleParameters>
        </data>
      </segment>
    </body>
  </omm>
  <omm id="CCSDS_OMM_VERS" version="2.0">
    <header>
      <COMMENT/>
      <CREATION_DATE/>
      <ORIGINATOR/>
    </header>
    <body>
      <segment>
        <metadata>
          <COMMENT/>
          <OBJECT_NAME/>
          <OBJECT_ID>1959-009A</OBJECT_ID>
          <CENTER_NAME/>
          <REF_FRAME/>
          <REF_FRAME_EPOCH/>
          <TIME_SYSTEM/>
          <MEAN_ELEMENT_THEORY/>
        </metadata>
        <data>
          <meanElements>
            <COMMENT/>
            <EPOCH>2020-05-06T04:40:00.850656</EPOCH>
            <MEAN_MOTION>14.95123513</MEAN_MOTION>
            <ECCENTRICITY>0.0139684</ECCENTRICITY>
            <INCLINATION>50.2837</INCLINATION>
            <RA_OF_ASC_NODE>300.344</RA_OF_ASC_NODE>
            <ARG_OF_PERICENTER>97.2941</ARG_OF_PERICENTER>
            <MEAN_ANOMALY>264.3907</MEAN_ANOMALY>
            <GM/>
          </meanElements>
          <tleParameters>
            <COMMENT/>
            <EPHEMERIS_TYPE>0</EPHEMERIS_TYPE>
            <CLASSIFICATION_TYPE>U</CLASSIFICATION_TYPE>
            <NORAD_CAT_ID>22</NORAD_CAT_ID>
            <ELEMENT_SET_NO>999</ELEMENT_SET_NO>
            <REV_AT_EPOCH>21900</REV_AT_EPOCH>
            <BSTAR>0.000040517</BSTAR>
            <MEAN_MOTION_DOT>0.0000023</MEAN_MOTION_DOT>
            <MEAN_MOTION_DDOT>0</MEAN_MOTION_DDOT>
          </tleParameters>
        </data>
      </segment>
    </body>
  </omm>
  
</ndm>